BEIDOU-2 IGSO-1         
1 36828U 10036A   26132.68902604 -.00000041  00000+0  00000+0 0  9990
2 36828  54.2951 163.2807 0058855 224.5644 197.8413  1.00282752 57743
BEIDOU-2 G4             
1 37210U 10057A   26136.27560624 -.00000102  00000+0  00000+0 0  9998
2 37210   3.5673  69.1231 0005718 208.8680 215.2069  1.00272010 56979
BEIDOU-2 IGSO-2         
1 37256U 10068A   26135.72421087 -.00000229  00000+0  00000+0 0  9998
2 37256  47.6108 272.2352 0054345 211.9136 116.2636  1.00294155 56461
BEIDOU-2 IGSO-3         
1 37384U 11013A   26134.75077336 -.00000206  00000+0  00000+0 0  9992
2 37384  62.3634  40.4703 0033942 185.9417  24.6219  1.00276202 55324
BEIDOU-2 IGSO-4         
1 37763U 11038A   26135.54954834  .00000081  00000+0  00000+0 0  9995
2 37763  54.5938 165.9627 0158183 232.1819 124.6650  1.00290759 54310
BEIDOU-2 IGSO-5         
1 37948U 11073A   26135.84720240 -.00000139  00000+0  10000-3 0  9994
2 37948  47.7408 271.9451 0111871 220.5387 138.5489  1.00257628 52802
BEIDOU-2 G5             
1 38091U 12008A   26136.18431484  .00000068  00000+0  00000+0 0  9995
2 38091   3.4935  69.8790 0010963 270.4839  18.5638  1.00271998 52047
BEIDOU-2 M3             
1 38250U 12018A   26135.97120564 -.00000052  00000+0  00000+0 0  9997
2 38250  55.7865 305.9605 0019729 275.9386  83.8173  1.86229756 95349
BEIDOU-2 M4             
1 38251U 12018B   26135.90344955 -.00000052  00000+0  00000+0 0  9993
2 38251  55.6870 305.1797 0010980 281.2915  78.5653  1.86229577 95342
BEIDOU-2 M6             
1 38775U 12050B   26134.00242703 -.00000037  00000+0  00000+0 0  9991
2 38775  56.5158  64.0245 0014342 351.6260   8.3313  1.86230833 92676
BEIDOU-2 G6             
1 38953U 12059A   26135.90411184 -.00000164  00000+0  00000+0 0  9990
2 38953   4.3393  73.8587 0010326 320.3668 248.9548  1.00271253 49587
BEIDOU-3S IGSO-1S       
1 40549U 15019A   26135.91205413 -.00000185  00000+0  00000+0 0  9993
2 40549  49.2575 295.8495 0037902 190.0769 169.9729  1.00257096 40750
BEIDOU-3S M2S           
1 40748U 15037A   26136.10633863 -.00000053  00000+0  00000+0 0  9994
2 40748  54.8996 303.1505 0007592 266.8772  93.0131  1.86232078 73525
BEIDOU-3S M1S           
1 40749U 15037B   26134.70702215 -.00000049  00000+0  00000+0 0  9992
2 40749  54.8981 303.1861 0004118  56.2797 303.7422  1.86254777 73506
BEIDOU-3S IGSO-2S       
1 40938U 15053A   26135.81414052 -.00000168  00000+0  00000+0 0  9994
2 40938  49.2741 259.1680 0064591 190.8524 173.0820  1.00267184 39033
BEIDOU-2 IGSO-6         
1 41434U 16021A   26135.69955757 -.00000173  00000+0  00000+0 0  9996
2 41434  60.1823  38.3641 0057277 232.4151 308.9973  1.00264684 37155
BEIDOU-2 G7             
1 41586U 16037A   26136.26581286 -.00000342  00000+0  00000+0 0  9995
2 41586   1.6405  69.0212 0007393 359.1504  12.0527  1.00267868  6574
BEIDOU-3 M1             
1 43001U 17069A   26133.76780652 -.00000035  00000+0  00000+0 0  9994
2 43001  56.6631  64.2188 0011641 320.5367  39.3602  1.86231382 57969
BEIDOU-3 M2             
1 43002U 17069B   26133.16952611 -.00000032  00000+0  00000+0 0  9992
2 43002  56.6620  64.2738 0009693 344.6836  15.2699  1.86229936 57940
BEIDOU-3 M7             
1 43107U 18003A   26134.52202215 -.00000050  00000+0  00000+0 0  9996
2 43107  54.3594 303.4891 0005239  85.7155 274.3282  1.86228234 56729
BEIDOU-3 M8             
1 43108U 18003B   26132.85647029 -.00000043  00000+0  00000+0 0  9999
2 43108  54.3540 303.5291 0002179 277.0252  82.9401  1.86231209 56700
BEIDOU-3 M4             
1 43207U 18018A   26135.44695527 -.00000042  00000+0  00000+0 0  9998
2 43207  56.6235  64.2285 0007863   8.9950 350.9990  1.86231263 56139
BEIDOU-3 M3             
1 43208U 18018B   26133.90253905 -.00000036  00000+0  00000+0 0  9991
2 43208  56.6215  64.2834 0009595 332.7979  27.1331  1.86231253 56109
BEIDOU-3 M9             
1 43245U 18029A   26133.04629420 -.00000044  00000+0  00000+0 0  9997
2 43245  54.2274 301.1779 0000806 101.6627 258.3330  1.86228295 55242
BEIDOU-3 M10            
1 43246U 18029B   26132.98083424 -.00000043  00000+0  00000+0 0  9997
2 43246  54.2250 301.2067 0004582  37.0226 322.9958  1.86229383 55221
BEIDOU-2 IGSO-7         
1 43539U 18057A   26135.48231544  .00000021  00000+0  00000+0 0  9994
2 43539  55.1885 163.3444 0104046 237.8314 117.6937  1.00260937 28794
BEIDOU-3 M5             
1 43581U 18062A   26135.35288752  .00000098  00000+0  00000+0 0  9990
2 43581  54.0836 183.4210 0005013 287.6962  72.3442  1.86228530 53024
BEIDOU-3 M6             
1 43582U 18062B   26135.75315719  .00000097  00000+0  00000+0 0  9998
2 43582  54.0834 183.3965 0004763  15.7603 344.3501  1.86227513 53031
BEIDOU-3 M12            
1 43602U 18067A   26135.15459196  .00000100  00000+0  00000+0 0  9993
2 43602  54.1785 182.1610 0007834  32.1645 327.9780  1.86227905 52507
BEIDOU-3 M11            
1 43603U 18067B   26134.75259480  .00000100  00000+0  00000+0 0  9993
2 43603  54.1758 182.1382 0004429  17.6934 342.4159  1.86227418 52523
BEIDOU-3 M13            
1 43622U 18072A   26133.63367348 -.00000035  00000+0  00000+0 0  9997
2 43622  56.5956  63.8000 0008352 321.7173  38.2058  1.86231484 52015
